YAOGAN-36 04C           
1 54750U 22171E   26068.78871400  .00016196  00000+0  54592-3 0  9991
2 54750  34.9797  96.6578 0006685 275.3761  84.6192 15.29852307180246
STARLINK-32448          
1 62206U 24229Q   26068.54887050  .00033279  00000+0  12129-2 0  9994
2 62206  43.0029 271.1821 0001366 264.9409  95.1286 15.27594975 70549
